{
    "links": {
        "self": "http://www.neowsapp.com/rest/v1/neo/3384066?api_key=iIulBulltgU6a56xZRHN4H3l9WmuAYTsLGpBGhQ2"
    },
    "id": "3384066",
    "neo_reference_id": "3384066",
    "name": "(2007 RS9)",
    "designation": "2007 RS9",
    "nasa_jpl_url": "http://ssd.jpl.nasa.gov/sbdb.cgi?sstr=3384066",
    "absolute_magnitude_h": 24.6,
    "estimated_diameter": {
        "kilometers": {
            "estimated_diameter_min": 0.0319561887,
            "estimated_diameter_max": 0.0714562102
        },
        "meters": {
            "estimated_diameter_min": 31.9561886721,
            "estimated_diameter_max": 71.4562101727
        },
        "miles": {
            "estimated_diameter_min": 0.0198566489,
            "estimated_diameter_max": 0.0444008168
        },
        "feet": {
            "estimated_diameter_min": 104.8431420431,
            "estimated_diameter_max": 234.436392583
        }
    },
    "is_potentially_hazardous_asteroid": false,
    "close_approach_data": [
        {
            "close_approach_date": "2007-08-30",
            "close_approach_date_full": "2007-Aug-30 14:00",
            "epoch_date_close_approach": 1188482400000,
            "relative_velocity": {
                "kilometers_per_second": "8.3308904501",
                "kilometers_per_hour": "29991.2056202848",
                "miles_per_hour": "18635.368847782"
            },
            "miss_distance": {
                "astronomical": "0.0764824454",
                "lunar": "29.7516712606",
                "kilometers": "11441610.924231298",
                "miles": "7109487.3570079924"
            },
            "orbiting_body": "Earth"
        }
    ],
    "orbital_data": {
        "orbit_id": "8",
        "orbit_determination_date": "2017-04-06 09:06:07",
        "first_observation_date": "2007-09-10",
        "last_observation_date": "2007-09-16",
        "data_arc_in_days": 6,
        "observations_used": 17,
        "orbit_uncertainty": "9",
        "minimum_orbit_intersection": ".0741594",
        "jupiter_tisserand_invariant": "4.027",
        "epoch_osculation": "2454354.5",
        "eccentricity": ".3966881557959382",
        "semi_major_axis": "1.74517098877255",
        "inclination": "10.53577180928793",
        "ascending_node_longitude": "167.1806627393301",
        "orbital_period": "842.0839775480939",
        "perihelion_distance": "1.052882327687793",
        "perihelion_argument": "147.1575444905646",
        "aphelion_distance": "2.437459649857306",
        "perihelion_time": "2454323.123490914854",
        "mean_anomaly": "13.41379668990013",
        "mean_motion": ".4275108060459912",
        "equinox": "J2000",
        "orbit_class": {
            "orbit_class_type": "AMO",
            "orbit_class_description": "Near-Earth asteroid orbits similar to that of 1221 Amor",
            "orbit_class_range": "1.017 AU < q (perihelion) < 1.3 AU"
        }
    },
    "is_sentry_object": false
}